{
  "type": "FeatureCollection",
  "features": [
    {
      "type": "Feature",
      "properties": {
        "norad_id": 37836,
        "name": "EUTELSAT 16A",
        "group": "eutelsat",
        "lat": 0.053601185186412735,
        "lon": 10.282511865313309,
        "alt_km": 35790.262425476736,
        "timestamp": "2025-12-17T17:50:18.923355+00:00",
        "meta_object_name": "EUTELSAT 16A",
        "meta_object_id": "2011-057A",
        "meta_epoch": "2025-12-17T04:53:38.566176",
        "meta_mean_motion": 1.00274433,
        "meta_eccentricity": 0.00061853,
        "meta_inclination": 0.0638,
        "meta_ra_of_asc_node": 330.4647,
        "meta_arg_of_pericenter": 298.8882,
        "meta_mean_anomaly": 266.1668,
        "meta_ephemeris_type": 0,
        "meta_classification_type": "U",
        "meta_norad_cat_id": 37836,
        "meta_element_set_no": 999,
        "meta_rev_at_epoch": 550,
        "meta_bstar": 0,
        "meta_mean_motion_dot": 1.29e-06,
        "meta_mean_motion_ddot": 0,
        "tle_line1": "1 37836U 11057A   25351.20391859  .00000129  00000+0  00000+0 0  9994",
        "tle_line2": "2 37836   0.0638 330.4647 0006185 298.8882 266.1668  1.00274433  5507"
      },
      "geometry": {
        "type": "Point",
        "coordinates": [
          10.282511865313309,
          0.053601185186412735
        ]
      }
    },
    {
      "type": "Feature",
      "properties": {
        "norad_id": 38992,
        "name": "EUTELSAT 21B",
        "group": "eutelsat",
        "lat": 0.06360523749878205,
        "lon": 15.850330026743567,
        "alt_km": 35788.18783648068,
        "timestamp": "2025-12-17T17:50:18.923367+00:00",
        "meta_object_name": "EUTELSAT 21B",
        "meta_object_id": "2012-062B",
        "meta_epoch": "2025-12-17T04:52:03.692064",
        "meta_mean_motion": 1.00274338,
        "meta_eccentricity": 0.00035101,
        "meta_inclination": 0.0725,
        "meta_ra_of_asc_node": 333.4242,
        "meta_arg_of_pericenter": 301.3075,
        "meta_mean_anomaly": 265.9899,
        "meta_ephemeris_type": 0,
        "meta_classification_type": "U",
        "meta_norad_cat_id": 38992,
        "meta_element_set_no": 999,
        "meta_rev_at_epoch": 4800,
        "meta_bstar": 0,
        "meta_mean_motion_dot": 1.55e-06,
        "meta_mean_motion_ddot": 0,
        "tle_line1": "1 38992U 12062B   25351.20282051  .00000155  00000+0  00000+0 0  9997",
        "tle_line2": "2 38992   0.0725 333.4242 0003510 301.3075 265.9899  1.00274338 48004"
      },
      "geometry": {
        "type": "Point",
        "coordinates": [
          15.850330026743567,
          0.06360523749878205
        ]
      }
    },
    {
      "type": "Feature",
      "properties": {
        "norad_id": 39020,
        "name": "EUTELSAT 70B",
        "group": "eutelsat",
        "lat": 0.08168761416307554,
        "lon": 64.68348897229377,
        "alt_km": 35804.39330345437,
        "timestamp": "2025-12-17T17:50:18.923379+00:00",
        "meta_object_name": "EUTELSAT 70B",
        "meta_object_id": "2012-069A",
        "meta_epoch": "2025-12-17T05:05:54.865248",
        "meta_mean_motion": 1.00271154,
        "meta_eccentricity": 0.00043119,
        "meta_inclination": 0.0607,
        "meta_ra_of_asc_node": 356.7234,
        "meta_arg_of_pericenter": 254.1508,
        "meta_mean_anomaly": 342.1937,
        "meta_ephemeris_type": 0,
        "meta_classification_type": "U",
        "meta_norad_cat_id": 39020,
        "meta_element_set_no": 999,
        "meta_rev_at_epoch": 4768,
        "meta_bstar": 0,
        "meta_mean_motion_dot": -1.9e-07,
        "meta_mean_motion_ddot": 0,
        "tle_line1": "1 39020U 12069A   25351.21244057 -.00000019  00000+0  00000+0 0  9992",
        "tle_line2": "2 39020   0.0607 356.7234 0004311 254.1508 342.1937  1.00271154 47688"
      },
      "geometry": {
        "type": "Point",
        "coordinates": [
          64.68348897229377,
          0.08168761416307554
        ]
      }
    },
    {
      "type": "Feature",
      "properties": {
        "norad_id": 39122,
        "name": "EUTELSAT 117 WEST A",
        "group": "eutelsat",
        "lat": -0.025037238555327693,
        "lon": -122.63300445181433,
        "alt_km": 35776.104152980755,
        "timestamp": "2025-12-17T17:50:18.923391+00:00",
        "meta_object_name": "EUTELSAT 117 WEST A",
        "meta_object_id": "2013-012A",
        "meta_epoch": "2025-12-17T06:53:10.084128",
        "meta_mean_motion": 1.00272723,
        "meta_eccentricity": 0.00027354,
        "meta_inclination": 0.0254,
        "meta_ra_of_asc_node": 41.3562,
        "meta_arg_of_pericenter": 229.2576,
        "meta_mean_anomaly": 162.0441,
        "meta_ephemeris_type": 0,
        "meta_classification_type": "U",
        "meta_norad_cat_id": 39122,
        "meta_element_set_no": 999,
        "meta_rev_at_epoch": 4660,
        "meta_bstar": 0,
        "meta_mean_motion_dot": 1.1e-07,
        "meta_mean_motion_ddot": 0,
        "tle_line1": "1 39122U 13012A   25351.28692227  .00000011  00000+0  00000+0 0  9998",
        "tle_line2": "2 39122   0.0254  41.3562 0002735 229.2576 162.0441  1.00272723 46609"
      },
      "geometry": {
        "type": "Point",
        "coordinates": [
          -122.63300445181433,
          -0.025037238555327693
        ]
      }
    },
    {
      "type": "Feature",
      "properties": {
        "norad_id": 39163,
        "name": "EUTELSAT 7B",
        "group": "eutelsat",
        "lat": 0.017971975271498672,
        "lon": 1.225419289450294,
        "alt_km": 35773.22117161385,
        "timestamp": "2025-12-17T17:50:18.923404+00:00",
        "meta_object_name": "EUTELSAT 7B",
        "meta_object_id": "2013-022A",
        "meta_epoch": "2025-12-16T23:39:43.310016",
        "meta_mean_motion": 1.00270149,
        "meta_eccentricity": 0.00042028,
        "meta_inclination": 0.0653,
        "meta_ra_of_asc_node": 351.936,
        "meta_arg_of_pericenter": 328.139,
        "meta_mean_anomaly": 127.7401,
        "meta_ephemeris_type": 0,
        "meta_classification_type": "U",
        "meta_norad_cat_id": 39163,
        "meta_element_set_no": 999,
        "meta_rev_at_epoch": 4612,
        "meta_bstar": 0,
        "meta_mean_motion_dot": 7.2e-07,
        "meta_mean_motion_ddot": 0,
        "tle_line1": "1 39163U 13022A   25350.98591794  .00000072  00000+0  00000+0 0  9994",
        "tle_line2": "2 39163   0.0653 351.9360 0004202 328.1390 127.7401  1.00270149 46128"
      },
      "geometry": {
        "type": "Point",
        "coordinates": [
          1.225419289450294,
          0.017971975271498672
        ]
      }
    },
    {
      "type": "Feature",
      "properties": {
        "norad_id": 39612,
        "name": "EXPRESS-AT1",
        "group": "eutelsat",
        "lat": 0.039046307125792115,
        "lon": 50.17477585653576,
        "alt_km": 35785.67190294469,
        "timestamp": "2025-12-17T17:50:18.923427+00:00",
        "meta_object_name": "EXPRESS-AT1",
        "meta_object_id": "2014-010A",
        "meta_epoch": "2025-12-17T03:19:12.583776",
        "meta_mean_motion": 1.00270022,
        "meta_eccentricity": 5.834e-05,
        "meta_inclination": 0.017,
        "meta_ra_of_asc_node": 314.4393,
        "meta_arg_of_pericenter": 165.9171,
        "meta_mean_anomaly": 71.4676,
        "meta_ephemeris_type": 0,
        "meta_classification_type": "U",
        "meta_norad_cat_id": 39612,
        "meta_element_set_no": 999,
        "meta_rev_at_epoch": 4299,
        "meta_bstar": 0,
        "meta_mean_motion_dot": 1.03e-06,
        "meta_mean_motion_ddot": 0,
        "tle_line1": "1 39612U 14010A   25351.13834009  .00000103  00000+0  00000+0 0  9993",
        "tle_line2": "2 39612   0.0170 314.4393 0000583 165.9171  71.4676  1.00270022 42993"
      },
      "geometry": {
        "type": "Point",
        "coordinates": [
          50.17477585653576,
          0.039046307125792115
        ]
      }
    },
    {
      "type": "Feature",
      "properties": {
        "norad_id": 39613,
        "name": "EXPRESS-AT2",
        "group": "eutelsat",
        "lat": 0.009122886426104291,
        "lon": 134.04015785638956,
        "alt_km": 35790.9058561408,
        "timestamp": "2025-12-17T17:50:18.923448+00:00",
        "meta_object_name": "EXPRESS-AT2",
        "meta_object_id": "2014-010B",
        "meta_epoch": "2025-12-17T05:46:46.779744",
        "meta_mean_motion": 1.00272748,
        "meta_eccentricity": 0.00012111,
        "meta_inclination": 0.0172,
        "meta_ra_of_asc_node": 317.0289,
        "meta_arg_of_pericenter": 347.8644,
        "meta_mean_anomaly": 7.7804,
        "meta_ephemeris_type": 0,
        "meta_classification_type": "U",
        "meta_norad_cat_id": 39613,
        "meta_element_set_no": 999,
        "meta_rev_at_epoch": 4267,
        "meta_bstar": 0,
        "meta_mean_motion_dot": -2.56e-06,
        "meta_mean_motion_ddot": 0,
        "tle_line1": "1 39613U 14010B   25351.24081921 -.00000256  00000+0  00000+0 0  9993",
        "tle_line2": "2 39613   0.0172 317.0289 0001211 347.8644   7.7804  1.00272748 42671"
      },
      "geometry": {
        "type": "Point",
        "coordinates": [
          134.04015785638956,
          0.009122886426104291
        ]
      }
    }
  ]
}